[
    {
        "Altitude(m)": 605459.0059118033,
        "Argument of Periapsis(deg)": 0.0,
        "Eccentricity": 0.0,
        "Inclination(deg)": 60.0,
        "Latitude(deg)": 27.98813969228923,
        "Longitude(deg)": -112.20139081545503,
        "Mean Anomaly(deg)": -327.2727,
        "RAAN(deg)": 330.0,
        "Satellite Name": "Test1 1454",
        "Satellite Number": 1454,
        "Semi-Major Axis(m)": 6980739.136638005,
        "Time(s)": 0
    },
    {
        "Altitude(m)": 605535.7965677609,
        "Argument of Periapsis(deg)": 0.00010418945913296404,
        "Eccentricity": 0.0,
        "Inclination(deg)": 60.0,
        "Latitude(deg)": 28.50126892071042,
        "Longitude(deg)": -111.84444545732995,
        "Mean Anomaly(deg)": -326.65259385453817,
        "RAAN(deg)": 329.9995799508602,
        "Satellite Name": "Test1 1454",
        "Satellite Number": 1454,
        "Semi-Major Axis(m)": 6980739.136638005,
        "Time(s)": 10
    }
]